STARLINK-1830           
1 46727U 20073BK  22020.56436119  .00003608  00000+0  26093-3 0  9998
2 46727  53.0553 151.3359 0001736  78.0490 282.0693 15.06407903 70025
STARLINK-1831           
1 46728U 20073BL  22020.56564480  .00110505  00000+0  76486-3 0  9998
2 46728  53.0492 124.4530 0003452 326.1596  33.9202 15.73692587 70398
FLOCK 4V-22             
1 46735U 20061BL  22020.63625944  .00010267  00000+0  51241-3 0  9990
2 46735  97.4003  94.3340 0005136 287.9583  72.1081 15.17681566 69291
FLOCK 4V-23             
1 46737U 20061BM  22020.13552269  .00003198  00000+0  16290-3 0  9996
2 46737  97.4120  94.2785 0003014 261.5744  98.5148 15.17490921 69159
FLOCK 4V-24             
1 46738U 20061BN  22020.45690994  .00003895  00000+0  19725-3 0  9990
2 46738  97.4229  94.9523 0005938 308.9383  51.1339 15.17562882 68779
STARLINK-1848           
1 46740U 20074B   22020.39206250  .00004675  00000+0  33252-3 0  9996
2 46740  53.0528 262.1293 0002015  64.1319 295.9877 15.06399555 69115
STARLINK-1865           
1 46741U 20074C   22020.34274999  .00006757  00000+0  47192-3 0  9998
2 46741  53.0525 257.3423 0002066  62.3752 297.7447 15.06414177 69189
STARLINK-1872           
1 46742U 20074D   22020.37963127  .00005296  00000+0  37429-3 0  9999
2 46742  53.0549 257.1685 0001730  66.9906 293.1265 15.06390464 69182
STARLINK-1892           
1 46743U 20074E   22020.06999708  .00002741  00000+0  20290-3 0  9990
2 46743  53.0538 258.5584 0001517 153.2112 206.8956 15.06392321 69144
STARLINK-1894           
1 46744U 20074F   22020.35382564  .00002634  00000+0  19571-3 0  9990
2 46744  53.0534 257.2790 0001856  65.1104 295.0077 15.06387802 69180
STARLINK-1898           
1 46745U 20074G   22019.89499208  .00015619  00000+0  33975-3 0  9993
2 46745  53.0539 242.9519 0003842 119.4978 240.6411 15.44514392 69349
STARLINK-1905           
1 46746U 20074H   22020.36857295  .00003192  00000+0  23316-3 0  9993
2 46746  53.0549 257.2218 0001851  69.9712 290.1476 15.06387806 69188
STARLINK-1908           
1 46747U 20074J   22020.35015340  .00002479  00000+0  18536-3 0  9995
2 46747  53.0541 257.2948 0002010  66.5405 293.5795 15.06379132 69185
STARLINK-1910           
1 46748U 20074K   22020.35752928  .00003974  00000+0  28568-3 0  9993
2 46748  53.0535 257.2796 0001873  66.0033 294.1152 15.06383559 69180
STARLINK-1911           
1 46749U 20074L   22020.36488396  .00004226  00000+0  30251-3 0  9993
2 46749  53.0539 257.2454 0001808  69.4597 290.6586 15.06389139 69188
STARLINK-1920           
1 46751U 20074N   22020.36119084  .00002932  00000+0  21573-3 0  9990
2 46751  53.0540 257.2618 0001987  72.9917 287.1289 15.06392557 69187
STARLINK-1921           
1 46752U 20074P   22020.37225108  .00003310  00000+0  24104-3 0  9991
2 46752  53.0533 257.2088 0001845  61.1654 298.9520 15.06392805 69186
STARLINK-1922           
1 46753U 20074Q   22020.07370186  .00004975  00000+0  35275-3 0  9995
2 46753  53.0530 258.5425 0001710  74.9935 285.1243 15.06387766 69144
STARLINK-1923           
1 46754U 20074R   22020.34646281  .00004813  00000+0  34186-3 0  9999
2 46754  53.0525 257.3202 0002000  69.7596 290.3608 15.06389892 69186
STARLINK-1924           
1 46755U 20074S   22020.08612138  .00005071  00000+0  35905-3 0  9992
2 46755  53.0525 263.4929 0001855  66.1329 293.9854 15.06402419 69074
STARLINK-1925           
1 46756U 20074T   22020.07781783  .00005934  00000+0  41695-3 0  9996
2 46756  53.0559 263.5305 0001753  55.5723 304.5431 15.06395397 69074
STARLINK-1926           
1 46757U 20074U   22020.37270104  .00005775  00000+0  40632-3 0  9993
2 46757  53.0536 262.2212 0001784  71.3887 288.7296 15.06397909 69112
STARLINK-1928           
1 46758U 20074V   22020.39943998  .00005200  00000+0  36781-3 0  9997
2 46758  53.0532 262.0965 0001822  62.6752 297.4422 15.06393312 69122
STARLINK-1833           
1 46759U 20074W   22020.39483293  .00003243  00000+0  23656-3 0  9997
2 46759  53.0554 272.0998 0001733  65.9025 294.2145 15.06387805 68973
STARLINK-1896           
1 46760U 20074X   22020.40590337  .00005306  00000+0  37492-3 0  9994
2 46760  53.0522 272.0521 0001862  64.6317 295.4864 15.06389362 68987
STARLINK-1902           
1 46763U 20074AA  22020.39855194  .00221252  00000+0  87918-2 0  9997
2 46763  53.0500 270.4743 0001551  73.5387 286.5780 15.23885711 69005
STARLINK-1903           
1 46764U 20074AB  22020.39853270  .00007195  00000+0  50148-3 0  9995
2 46764  53.0522 272.0788 0001768  60.3210 299.7954 15.06396373 68983
STARLINK-1906           
1 46765U 20074AC  22020.38744727  .00004963  00000+0  35184-3 0  9994
2 46765  53.0539 272.1519 0001696  67.0396 293.0772 15.06402888 68977
STARLINK-1916           
1 46766U 20074AD  22020.11468726  .00002888  00000+0  21272-3 0  9995
2 46766  53.0533 273.3625 0001701  61.9112 298.2049 15.06391191 68944
STARLINK-1917           
1 46767U 20074AE  22020.40957524  .00004967  00000+0  35219-3 0  9993
2 46767  53.0527 272.0305 0001677  64.2682 295.8480 15.06395295 68984
STARLINK-1918           
1 46768U 20074AF  22020.41324831  .00005028  00000+0  35613-3 0  9991
2 46768  53.0537 272.0306 0002054  59.9021 300.2171 15.06410652 68988
STARLINK-1919           
1 46769U 20074AG  22020.37319242  .00458979  00000+0  73346-2 0  9998
2 46769  53.0548 255.3825 0007175 269.4611  90.5576 15.50990819 69215
STARLINK-1932           
1 46770U 20074AH  22020.16904964  .00014686  00000+0  10023-2 0  9994
2 46770  53.0532 273.1209 0001698  65.2256 294.8909 15.06416203 68944
STARLINK-1936           
1 46772U 20074AK  22020.42064101  .00006163  00000+0  43232-3 0  9995
2 46772  53.0532 271.9973 0001786  59.7775 300.3391 15.06396597 68987
STARLINK-1939           
1 46774U 20074AM  22020.40770207  .00008682  00000+0  55496-3 0  9999
2 46774  53.0518 269.5883 0002281  93.2719 266.8532 15.09363437 69027
STARLINK-1945           
1 46775U 20074AN  22020.03761939 -.00072684  12679-4 -21554-3 0  9994
2 46775  53.0512 235.6097 0001874 125.2187 234.9014 15.90872611 69452
STARLINK-1946           
1 46776U 20074AP  22020.41082617  .00098719  00000+0  55108-2 0  9992
2 46776  53.0570 271.7723 0001539  65.9441 294.1712 15.12723848 68986
STARLINK-1798           
1 46779U 20074AS  22020.31789423  .00002757  00000+0  20403-3 0  9991
2 46779  53.0546 247.4496 0001873  68.6004 291.5184 15.06384745 69319
STARLINK-1832           
1 46780U 20074AT  22020.04144076  .00003894  00000+0  28026-3 0  9994
2 46780  53.0553 248.6977 0002060  65.9187 294.2018 15.06391245 69271
STARLINK-1834           
1 46781U 20074AU  22020.39069757  .00003278  00000+0  23893-3 0  9998
2 46781  53.0545 257.1307 0001730  67.2297 292.8875 15.06383860 69195
STARLINK-1835           
1 46782U 20074AV  22020.36210757  .00006656  00000+0  46506-3 0  9993
2 46782  53.0523 247.2443 0001877  62.8787 297.2394 15.06420001 69329
STARLINK-1851           
1 46783U 20074AW  22020.04514323  .00002416  00000+0  18115-3 0  9990
2 46783  53.0541 248.6825 0001935  65.8206 294.2985 15.06376412 69276
STARLINK-1882           
1 46784U 20074AX  22020.31419105  .00005588  00000+0  39368-3 0  9999
2 46784  53.0548 247.4692 0002161  73.4592 286.6634 15.06406938 69316
STARLINK-1883           
1 46785U 20074AY  22020.03408176  .00002805  00000+0  20723-3 0  9999
2 46785  53.0533 248.7367 0002542  74.4118 285.7152 15.06381829 69273
STARLINK-1893           
1 46786U 20074AZ  22020.01379603  .00001855  00000+0  14346-3 0  9998
2 46786  53.0545 228.8119 0001553 153.5721 206.5347 15.06386052 69552
STARLINK-1899           
1 46787U 20074BA  22020.00643103  .00001376  00000+0  11131-3 0  9994
2 46787  53.0539 228.8414 0001791 164.7026 195.4017 15.06379838 69554
STARLINK-1929           
1 46788U 20074BB  22019.99905934  .00001690  00000+0  13231-3 0  9996
2 46788  53.0541 228.8929 0000381 197.1640 162.9336 15.06385991 69555
STARLINK-1930           
1 46789U 20074BC  22020.07275152  .00002443  00000+0  18291-3 0  9998
2 46789  53.0535 258.5451 0001891  67.9347 292.1843 15.06383332 69145
STARLINK-1931           
1 46790U 20074BD  22020.38330977  .00004899  00000+0  34760-3 0  9997
2 46790  53.0550 257.1552 0001944  66.7091 293.4102 15.06398618 69182
STARLINK-1933           
1 46791U 20074BE  22020.06632560  .00002964  00000+0  21793-3 0  9999
2 46791  53.0532 258.5790 0001867  64.9967 295.1215 15.06382694 69145
STARLINK-1934           
1 46792U 20074BF  22020.35843323  .00004747  00000+0  33739-3 0  9997
2 46792  53.0533 247.2667 0001802  68.3582 291.7599 15.06395002 69329
STARLINK-1941           
1 46793U 20074BG  22020.38700231  .00004837  00000+0  34347-3 0  9997
2 46793  53.0541 257.1477 0001776  64.3536 295.7636 15.06388862 69189
STARLINK-1942           
1 46794U 20074BH  22020.26168251  .00012179  00000+0  83476-3 0  9990
2 46794  53.0524 257.7116 0001797  63.0904 297.0268 15.06415719 69172
STARLINK-1944           
1 46796U 20074BK  22020.56854965  .00000000  00000+0  18932-4 0  9995
2 46796  53.0547 246.3304 0001808  72.1884 287.9302 15.06375822 69350
STARLINK-1947           
1 46797U 20074BL  22019.95744937  .00191678  00000+0  19326-2 0  9992
2 46797  53.0527 191.3455 0001073 100.4167 259.6968 15.64258812 70087
STARLINK-1948           
1 46798U 20074BM  22020.40126902  .00007208  00000+0  50227-3 0  9992
2 46798  53.0531 272.0854 0001632  72.6445 287.4723 15.06400698 68984
COSMOS 2547 [GLONASS-K] 
1 46805U 20075A   22020.20404810  .00000076  00000+0  00000+0 0  9993
2 46805  64.6878 246.4792 0005635 251.6241  16.0231  2.13102901  9616
YAOGAN 30 U             
1 46807U 20076A   22020.55680180  .00000861  00000+0  90040-4 0  9990
2 46807  34.9959  67.0638 0000739 244.5828 115.4799 14.90125028 67289
YAOGAN 30 V             
1 46808U 20076B   22020.53418662  .00000879  00000+0  91903-4 0  9991
2 46808  34.9969  66.8991 0001696  77.2774 282.8124 14.90119602 67286
